[{"OBJECT_NAME":"STARLINK-31454","OBJECT_ID":"2024-036S","EPOCH":"2026-03-09T07:50:39.827904","MEAN_MOTION":15.30194323,"ECCENTRICITY":0.00013146,"INCLINATION":53.1592,"RA_OF_ASC_NODE":80.0967,"ARG_OF_PERICENTER":85.187,"MEAN_ANOMALY":274.9281,"EPHEMERIS_TYPE":0,"CLASSIFICATION_TYPE":"U","NORAD_CAT_ID":59014,"ELEMENT_SET_NO":999,"REV_AT_EPOCH":11526,"BSTAR":5.5488075e-5,"MEAN_MOTION_DOT":1.284e-5,"MEAN_MOTION_DDOT":0},{"OBJECT_NAME":"TRANSPORTER-1 OBJECT M","OBJECT_ID":"2021-006M","EPOCH":"2026-03-09T22:05:37.843296","MEAN_MOTION":15.3227845,"ECCENTRICITY":0.00102759,"INCLINATION":97.2377,"RA_OF_ASC_NODE":116.7915,"ARG_OF_PERICENTER":187.5492,"MEAN_ANOMALY":172.5597,"EPHEMERIS_TYPE":0,"CLASSIFICATION_TYPE":"U","NORAD_CAT_ID":47424,"ELEMENT_SET_NO":999,"REV_AT_EPOCH":28439,"BSTAR":0.00023985652,"MEAN_MOTION_DOT":7.411e-5,"MEAN_MOTION_DDOT":0}]
